IRIDIUM 57              
1 25273U 98019B   24249.52863231  .00001219  00000+0  41823-3 0  9990
2 25273  86.3900 264.4551 0002220  90.4376 269.7075 14.35372323383945
IRIDIUM 63              
1 25286U 98021B   24249.93928389  .00001938  00000+0  66144-3 0  9999
2 25286  86.4031 201.2112 0002553  87.9525 272.1964 14.35959265383045
IRIDIUM 69              
1 25319U 98026A   24249.97816910  .00001839  00000+0  57570-3 0  9994
2 25319  86.3996 215.3252 0001078 157.0124 203.1123 14.40207534382385
IRIDIUM 71              
1 25320U 98026B   24249.96091957  .00001808  00000+0  56239-3 0  9998
2 25320  86.4005 210.0807 0001482  26.1608 333.9666 14.40520811382660
IRIDIUM 73              
1 25344U 98032C   24249.86711273  .00002720  00000+0  68563-3 0  9997
2 25344  86.4493 167.4702 0001965  95.0102 265.1328 14.50830414389321
IRIDIUM 82              
1 25467U 98051A   24249.95307439  .00032598  00000+0  15150-2 0  9998
2 25467  86.3691 247.3376 0115826 282.7731  76.0585 15.13963456380694
