<?xml version="1.0" encoding="UTF-8"?>
<ndm xmlns:xsi="http://www.w3.org/2001/XMLSchema-instance" xsi:noNamespaceSchemaLocation="https://sanaregistry.org/r/ndmxml_unqualified/ndmxml-2.0.0-master-2.0.xsd">
<omm id="CCSDS_OMM_VERS" version="2.0">
<header><CREATION_DATE/><ORIGINATOR/></header><body><segment><metadata><OBJECT_NAME>IRIDIUM 57</OBJECT_NAME><OBJECT_ID>1998-019B</OBJECT_ID><CENTER_NAME>EARTH</CENTER_NAME><REF_FRAME>TEME</REF_FRAME><TIME_SYSTEM>UTC</TIME_SYSTEM><MEAN_ELEMENT_THEORY>SGP4</MEAN_ELEMENT_THEORY></metadata><data><meanElements><EPOCH>2024-09-05T12:41:13.831584</EPOCH><MEAN_MOTION>14.35372323</MEAN_MOTION><ECCENTRICITY>.000222</ECCENTRICITY><INCLINATION>86.3900</INCLINATION><RA_OF_ASC_NODE>264.4551</RA_OF_ASC_NODE><ARG_OF_PERICENTER>90.4376</ARG_OF_PERICENTER><MEAN_ANOMALY>269.7075</MEAN_ANOMALY></meanElements><tleParameters><EPHEMERIS_TYPE>0</EPHEMERIS_TYPE><CLASSIFICATION_TYPE>U</CLASSIFICATION_TYPE><NORAD_CAT_ID>25273</NORAD_CAT_ID><ELEMENT_SET_NO>999</ELEMENT_SET_NO><REV_AT_EPOCH>38394</REV_AT_EPOCH><BSTAR>.41823E-3</BSTAR><MEAN_MOTION_DOT>.1219E-4</MEAN_MOTION_DOT><MEAN_MOTION_DDOT>0</MEAN_MOTION_DDOT></tleParameters></data></segment></body></omm>
<omm id="CCSDS_OMM_VERS" version="2.0">
<header><CREATION_DATE/><ORIGINATOR/></header><body><segment><metadata><OBJECT_NAME>IRIDIUM 63</OBJECT_NAME><OBJECT_ID>1998-021B</OBJECT_ID><CENTER_NAME>EARTH</CENTER_NAME><REF_FRAME>TEME</REF_FRAME><TIME_SYSTEM>UTC</TIME_SYSTEM><MEAN_ELEMENT_THEORY>SGP4</MEAN_ELEMENT_THEORY></metadata><data><meanElements><EPOCH>2024-09-05T22:32:34.128096</EPOCH><MEAN_MOTION>14.35959265</MEAN_MOTION><ECCENTRICITY>.0002553</ECCENTRICITY><INCLINATION>86.4031</INCLINATION><RA_OF_ASC_NODE>201.2112</RA_OF_ASC_NODE><ARG_OF_PERICENTER>87.9525</ARG_OF_PERICENTER><MEAN_ANOMALY>272.1964</MEAN_ANOMALY></meanElements><tleParameters><EPHEMERIS_TYPE>0</EPHEMERIS_TYPE><CLASSIFICATION_TYPE>U</CLASSIFICATION_TYPE><NORAD_CAT_ID>25286</NORAD_CAT_ID><ELEMENT_SET_NO>999</ELEMENT_SET_NO><REV_AT_EPOCH>38304</REV_AT_EPOCH><BSTAR>.66144E-3</BSTAR><MEAN_MOTION_DOT>.1938E-4</MEAN_MOTION_DOT><MEAN_MOTION_DDOT>0</MEAN_MOTION_DDOT></tleParameters></data></segment></body></omm>
<omm id="CCSDS_OMM_VERS" version="2.0">
<header><CREATION_DATE/><ORIGINATOR/></header><body><segment><metadata><OBJECT_NAME>IRIDIUM 69</OBJECT_NAME><OBJECT_ID>1998-026A</OBJECT_ID><CENTER_NAME>EARTH</CENTER_NAME><REF_FRAME>TEME</REF_FRAME><TIME_SYSTEM>UTC</TIME_SYSTEM><MEAN_ELEMENT_THEORY>SGP4</MEAN_ELEMENT_THEORY></metadata><data><meanElements><EPOCH>2024-09-05T23:28:33.810240</EPOCH><MEAN_MOTION>14.40207534</MEAN_MOTION><ECCENTRICITY>.0001078</ECCENTRICITY><INCLINATION>86.3996</INCLINATION><RA_OF_ASC_NODE>215.3252</RA_OF_ASC_NODE><ARG_OF_PERICENTER>157.0124</ARG_OF_PERICENTER><MEAN_ANOMALY>203.1123</MEAN_ANOMALY></meanElements><tleParameters><EPHEMERIS_TYPE>0</EPHEMERIS_TYPE><CLASSIFICATION_TYPE>U</CLASSIFICATION_TYPE><NORAD_CAT_ID>25319</NORAD_CAT_ID><ELEMENT_SET_NO>999</ELEMENT_SET_NO><REV_AT_EPOCH>38238</REV_AT_EPOCH><BSTAR>.5757E-3</BSTAR><MEAN_MOTION_DOT>.1839E-4</MEAN_MOTION_DOT><MEAN_MOTION_DDOT>0</MEAN_MOTION_DDOT></tleParameters></data></segment></body></omm>
<omm id="CCSDS_OMM_VERS" version="2.0">
<header><CREATION_DATE/><ORIGINATOR/></header><body><segment><metadata><OBJECT_NAME>IRIDIUM 71</OBJECT_NAME><OBJECT_ID>1998-026B</OBJECT_ID><CENTER_NAME>EARTH</CENTER_NAME><REF_FRAME>TEME</REF_FRAME><TIME_SYSTEM>UTC</TIME_SYSTEM><MEAN_ELEMENT_THEORY>SGP4</MEAN_ELEMENT_THEORY></metadata><data><meanElements><EPOCH>2024-09-05T23:03:43.450848</EPOCH><MEAN_MOTION>14.40520811</MEAN_MOTION><ECCENTRICITY>.0001482</ECCENTRICITY><INCLINATION>86.4005</INCLINATION><RA_OF_ASC_NODE>210.0807</RA_OF_ASC_NODE><ARG_OF_PERICENTER>26.1608</ARG_OF_PERICENTER><MEAN_ANOMALY>333.9666</MEAN_ANOMALY></meanElements><tleParameters><EPHEMERIS_TYPE>0</EPHEMERIS_TYPE><CLASSIFICATION_TYPE>U</CLASSIFICATION_TYPE><NORAD_CAT_ID>25320</NORAD_CAT_ID><ELEMENT_SET_NO>999</ELEMENT_SET_NO><REV_AT_EPOCH>38266</REV_AT_EPOCH><BSTAR>.56239E-3</BSTAR><MEAN_MOTION_DOT>.1808E-4</MEAN_MOTION_DOT><MEAN_MOTION_DDOT>0</MEAN_MOTION_DDOT></tleParameters></data></segment></body></omm>
<omm id="CCSDS_OMM_VERS" version="2.0">
<header><CREATION_DATE/><ORIGINATOR/></header><body><segment><metadata><OBJECT_NAME>IRIDIUM 73</OBJECT_NAME><OBJECT_ID>1998-032C</OBJECT_ID><CENTER_NAME>EARTH</CENTER_NAME><REF_FRAME>TEME</REF_FRAME><TIME_SYSTEM>UTC</TIME_SYSTEM><MEAN_ELEMENT_THEORY>SGP4</MEAN_ELEMENT_THEORY></metadata><data><meanElements><EPOCH>2024-09-05T20:48:38.539872</EPOCH><MEAN_MOTION>14.50830414</MEAN_MOTION><ECCENTRICITY>.0001965</ECCENTRICITY><INCLINATION>86.4493</INCLINATION><RA_OF_ASC_NODE>167.4702</RA_OF_ASC_NODE><ARG_OF_PERICENTER>95.0102</ARG_OF_PERICENTER><MEAN_ANOMALY>265.1328</MEAN_ANOMALY></meanElements><tleParameters><EPHEMERIS_TYPE>0</EPHEMERIS_TYPE><CLASSIFICATION_TYPE>U</CLASSIFICATION_TYPE><NORAD_CAT_ID>25344</NORAD_CAT_ID><ELEMENT_SET_NO>999</ELEMENT_SET_NO><REV_AT_EPOCH>38932</REV_AT_EPOCH><BSTAR>.68563E-3</BSTAR><MEAN_MOTION_DOT>.272E-4</MEAN_MOTION_DOT><MEAN_MOTION_DDOT>0</MEAN_MOTION_DDOT></tleParameters></data></segment></body></omm>
<omm id="CCSDS_OMM_VERS" version="2.0">
<header><CREATION_DATE/><ORIGINATOR/></header><body><segment><metadata><OBJECT_NAME>IRIDIUM 82</OBJECT_NAME><OBJECT_ID>1998-051A</OBJECT_ID><CENTER_NAME>EARTH</CENTER_NAME><REF_FRAME>TEME</REF_FRAME><TIME_SYSTEM>UTC</TIME_SYSTEM><MEAN_ELEMENT_THEORY>SGP4</MEAN_ELEMENT_THEORY></metadata><data><meanElements><EPOCH>2024-09-05T22:52:25.627296</EPOCH><MEAN_MOTION>15.13963456</MEAN_MOTION><ECCENTRICITY>.0115826</ECCENTRICITY><INCLINATION>86.3691</INCLINATION><RA_OF_ASC_NODE>247.3376</RA_OF_ASC_NODE><ARG_OF_PERICENTER>282.7731</ARG_OF_PERICENTER><MEAN_ANOMALY>76.0585</MEAN_ANOMALY></meanElements><tleParameters><EPHEMERIS_TYPE>0</EPHEMERIS_TYPE><CLASSIFICATION_TYPE>U</CLASSIFICATION_TYPE><NORAD_CAT_ID>25467</NORAD_CAT_ID><ELEMENT_SET_NO>999</ELEMENT_SET_NO><REV_AT_EPOCH>38069</REV_AT_EPOCH><BSTAR>.1515E-2</BSTAR><MEAN_MOTION_DOT>.32598E-3</MEAN_MOTION_DOT><MEAN_MOTION_DDOT>0</MEAN_MOTION_DDOT></tleParameters></data></segment></body></omm>
</ndm>
